TRANSPORTER-12 OBJECT BT
1 62674U 25009BT  26068.71416991  .00013824  00000+0  51029-3 0  9998
2 62674  97.4094 151.5992 0003682 313.5044  46.5889 15.27872239121360
STARLINK-33693          
1 63409U 25065L   26068.52060597  .00034170  00000+0  12444-2 0  9997
2 63409  43.0001 108.0642 0001489 277.6546  82.4136 15.27608182 52812
